{
  "type": "FeatureCollection",
  "features": [
    {
      "type": "Feature",
      "properties": {
        "norad_id": 44873,
        "name": "CSG-1",
        "group": "resource",
        "lat": 16.214315750201543,
        "lon": 158.8258426954044,
        "alt_km": 622.8689948418232,
        "timestamp": "2025-12-05T16:54:14.327506+00:00",
        "meta_object_name": "CSG-1",
        "meta_object_id": "2019-092A",
        "meta_epoch": "2025-12-05T07:06:31.570272",
        "meta_mean_motion": 14.8214793,
        "meta_eccentricity": 0.00014592,
        "meta_inclination": 97.8805,
        "meta_ra_of_asc_node": 160.7324,
        "meta_arg_of_pericenter": 86.509,
        "meta_mean_anomaly": 273.629,
        "meta_ephemeris_type": 0,
        "meta_classification_type": "U",
        "meta_norad_cat_id": 44873,
        "meta_element_set_no": 999,
        "meta_rev_at_epoch": 32275,
        "meta_bstar": 0.00015568295,
        "meta_mean_motion_dot": 1.187e-05,
        "meta_mean_motion_ddot": 0,
        "tle_line1": "1 44873U 19092A   25339.29619873  .00001187  00000+0  15568-3 0  9998",
        "tle_line2": "2 44873  97.8805 160.7324 0001459  86.5090 273.6290 14.82147930322752"
      },
      "geometry": {
        "type": "Point",
        "coordinates": [
          158.8258426954044,
          16.214315750201543
        ]
      }
    },
    {
      "type": "Feature",
      "properties": {
        "norad_id": 46277,
        "name": "NEMO-HD",
        "group": "resource",
        "lat": 32.27626426269222,
        "lon": -136.51252246194255,
        "alt_km": 443.8065263616045,
        "timestamp": "2025-12-05T16:54:14.327516+00:00",
        "meta_object_name": "NEMO-HD",
        "meta_object_id": "2020-061F",
        "meta_epoch": "2025-12-05T06:54:37.550304",
        "meta_mean_motion": 15.40098263,
        "meta_eccentricity": 0.00022717,
        "meta_inclination": 97.2224,
        "meta_ra_of_asc_node": 38.4823,
        "meta_arg_of_pericenter": 65.4989,
        "meta_mean_anomaly": 294.6494,
        "meta_ephemeris_type": 0,
        "meta_classification_type": "U",
        "meta_norad_cat_id": 46277,
        "meta_element_set_no": 999,
        "meta_rev_at_epoch": 29209,
        "meta_bstar": 0.00043433542,
        "meta_mean_motion_dot": 0.00017322,
        "meta_mean_motion_ddot": 0,
        "tle_line1": "1 46277U 20061F   25339.28793461  .00017322  00000+0  43434-3 0  9992",
        "tle_line2": "2 46277  97.2224  38.4823 0002271  65.4989 294.6494 15.40098263292093"
      },
      "geometry": {
        "type": "Point",
        "coordinates": [
          -136.51252246194255,
          32.27626426269222
        ]
      }
    },
    {
      "type": "Feature",
      "properties": {
        "norad_id": 46984,
        "name": "SENTINEL-6A",
        "group": "resource",
        "lat": 51.99853572795945,
        "lon": -148.39075170959148,
        "alt_km": 1337.1890279168274,
        "timestamp": "2025-12-05T16:54:14.327525+00:00",
        "meta_object_name": "SENTINEL-6A",
        "meta_object_id": "2020-086A",
        "meta_epoch": "2025-12-04T19:58:54.613920",
        "meta_mean_motion": 12.80930253,
        "meta_eccentricity": 0.00077324,
        "meta_inclination": 66.0391,
        "meta_ra_of_asc_node": 178.7316,
        "meta_arg_of_pericenter": 269.1568,
        "meta_mean_anomaly": 90.8561,
        "meta_ephemeris_type": 0,
        "meta_classification_type": "U",
        "meta_norad_cat_id": 46984,
        "meta_element_set_no": 999,
        "meta_rev_at_epoch": 23543,
        "meta_bstar": 0.00017332251,
        "meta_mean_motion_dot": -2.1e-07,
        "meta_mean_motion_ddot": 0,
        "tle_line1": "1 46984U 20086A   25338.83257655 -.00000021  00000+0  17332-3 0  9991",
        "tle_line2": "2 46984  66.0391 178.7316 0007732 269.1568  90.8561 12.80930253235436"
      },
      "geometry": {
        "type": "Point",
        "coordinates": [
          -148.39075170959148,
          51.99853572795945
        ]
      }
    },
    {
      "type": "Feature",
      "properties": {
        "norad_id": 48079,
        "name": "GAOFEN-12 02",
        "group": "resource",
        "lat": -45.10867429979673,
        "lon": -18.155206414331143,
        "alt_km": 636.17956439926,
        "timestamp": "2025-12-05T16:54:14.327534+00:00",
        "meta_object_name": "GAOFEN-12 02",
        "meta_object_id": "2021-026A",
        "meta_epoch": "2025-12-05T07:22:43.290336",
        "meta_mean_motion": 14.80661235,
        "meta_eccentricity": 0.0003333,
        "meta_inclination": 97.9849,
        "meta_ra_of_asc_node": 333.3499,
        "meta_arg_of_pericenter": 115.93,
        "meta_mean_anomaly": 244.2255,
        "meta_ephemeris_type": 0,
        "meta_classification_type": "U",
        "meta_norad_cat_id": 48079,
        "meta_element_set_no": 999,
        "meta_rev_at_epoch": 25307,
        "meta_bstar": 0.00013781848,
        "meta_mean_motion_dot": 1.006e-05,
        "meta_mean_motion_ddot": 0,
        "tle_line1": "1 48079U 21026A   25339.30744549  .00001006  00000+0  13782-3 0  9997",
        "tle_line2": "2 48079  97.9849 333.3499 0003333 115.9300 244.2255 14.80661235253078"
      },
      "geometry": {
        "type": "Point",
        "coordinates": [
          -18.155206414331143,
          -45.10867429979673
        ]
      }
    },
    {
      "type": "Feature",
      "properties": {
        "norad_id": 48268,
        "name": "PLEIADES NEO 3",
        "group": "resource",
        "lat": -4.044549825128864,
        "lon": 52.808161272230386,
        "alt_km": 627.7096374580196,
        "timestamp": "2025-12-05T16:54:14.327544+00:00",
        "meta_object_name": "PLEIADES NEO 3",
        "meta_object_id": "2021-034A",
        "meta_epoch": "2025-12-05T07:11:51.608832",
        "meta_mean_motion": 14.81670391,
        "meta_eccentricity": 0.00012453,
        "meta_inclination": 97.8948,
        "meta_ra_of_asc_node": 51.8474,
        "meta_arg_of_pericenter": 95.0794,
        "meta_mean_anomaly": 265.0561,
        "meta_ephemeris_type": 0,
        "meta_classification_type": "U",
        "meta_norad_cat_id": 48268,
        "meta_element_set_no": 999,
        "meta_rev_at_epoch": 24894,
        "meta_bstar": -1.624557e-06,
        "meta_mean_motion_dot": -6.5e-07,
        "meta_mean_motion_ddot": 0,
        "tle_line1": "1 48268U 21034A   25339.29990288 -.00000065  00000+0 -16246-5 0  9993",
        "tle_line2": "2 48268  97.8948  51.8474 0001245  95.0794 265.0561 14.81670391248942"
      },
      "geometry": {
        "type": "Point",
        "coordinates": [
          52.808161272230386,
          -4.044549825128864
        ]
      }
    },
    {
      "type": "Feature",
      "properties": {
        "norad_id": 49070,
        "name": "PLEIADES NEO 4",
        "group": "resource",
        "lat": 3.7078496045771776,
        "lon": -127.24285306987517,
        "alt_km": 626.4075462720402,
        "timestamp": "2025-12-05T16:54:14.327553+00:00",
        "meta_object_name": "PLEIADES NEO 4",
        "meta_object_id": "2021-073E",
        "meta_epoch": "2025-12-05T08:00:27.982080",
        "meta_mean_motion": 14.81673096,
        "meta_eccentricity": 0.00013472,
        "meta_inclination": 97.8947,
        "meta_ra_of_asc_node": 51.8766,
        "meta_arg_of_pericenter": 97.5499,
        "meta_mean_anomaly": 262.5867,
        "meta_ephemeris_type": 0,
        "meta_classification_type": "U",
        "meta_norad_cat_id": 49070,
        "meta_element_set_no": 999,
        "meta_rev_at_epoch": 23266,
        "meta_bstar": 2.857739e-06,
        "meta_mean_motion_dot": -3e-07,
        "meta_mean_motion_ddot": 0,
        "tle_line1": "1 49070U 21073E   25339.33365720 -.00000030  00000+0  28577-5 0  9991",
        "tle_line2": "2 49070  97.8947  51.8766 0001347  97.5499 262.5867 14.81673096232667"
      },
      "geometry": {
        "type": "Point",
        "coordinates": [
          -127.24285306987517,
          3.7078496045771776
        ]
      }
    },
    {
      "type": "Feature",
      "properties": {
        "norad_id": 49260,
        "name": "LANDSAT 9",
        "group": "resource",
        "lat": 80.98608495522555,
        "lon": -66.55797694200497,
        "alt_km": 694.291939285773,
        "timestamp": "2025-12-05T16:54:14.327562+00:00",
        "meta_object_name": "LANDSAT 9",
        "meta_object_id": "2021-088A",
        "meta_epoch": "2025-12-05T04:56:20.906592",
        "meta_mean_motion": 14.57118388,
        "meta_eccentricity": 0.00010769,
        "meta_inclination": 98.2102,
        "meta_ra_of_asc_node": 47.4256,
        "meta_arg_of_pericenter": 93.1518,
        "meta_mean_anomaly": 266.9804,
        "meta_ephemeris_type": 0,
        "meta_classification_type": "U",
        "meta_norad_cat_id": 49260,
        "meta_element_set_no": 999,
        "meta_rev_at_epoch": 22275,
        "meta_bstar": 0.00020777937,
        "meta_mean_motion_dot": 8.91e-06,
        "meta_mean_motion_ddot": 0,
        "tle_line1": "1 49260U 21088A   25339.20579753  .00000891  00000+0  20778-3 0  9994",
        "tle_line2": "2 49260  98.2102  47.4256 0001076  93.1518 266.9804 14.57118388222753"
      },
      "geometry": {
        "type": "Point",
        "coordinates": [
          -66.55797694200497,
          80.98608495522555
        ]
      }
    }
  ]
}